CCSDS_OMM_VERS = 2.0
CREATION_DATE  = 
ORIGINATOR     = 

OBJECT_NAME    = UNKNOWN
OBJECT_ID      = 
CENTER_NAME    = EARTH
REF_FRAME      = TEME
TIME_SYSTEM    = UTC
MEAN_ELEMENT_THEORY = SGP/SGP4

EPOCH          = 2026-02-25T13:01:43.593024
MEAN_MOTION    = 13.34391418
ECCENTRICITY   = .0767567
INCLINATION    = 65.8275
RA_OF_ASC_NODE = 247.7815
ARG_OF_PERICENTER = 101.5751
MEAN_ANOMALY   = 267.2412

EPHEMERIS_TYPE = 0
CLASSIFICATION_TYPE = U
NORAD_CAT_ID   = 81615
ELEMENT_SET_NO = 999
REV_AT_EPOCH   = 59284
BSTAR          = .92129E-3
MEAN_MOTION_DOT = .2519E-4
MEAN_MOTION_DDOT = 0

CCSDS_OMM_VERS = 2.0
CREATION_DATE  = 
ORIGINATOR     = 

OBJECT_NAME    = UNKNOWN
OBJECT_ID      = 
CENTER_NAME    = EARTH
REF_FRAME      = TEME
TIME_SYSTEM    = UTC
MEAN_ELEMENT_THEORY = SGP/SGP4

EPOCH          = 2026-02-24T22:23:27.354336
MEAN_MOTION    = 12.57595086
ECCENTRICITY   = .003267
INCLINATION    = 101.2660
RA_OF_ASC_NODE = 232.1669
ARG_OF_PERICENTER = 98.7048
MEAN_ANOMALY   = 261.7731

EPHEMERIS_TYPE = 0
CLASSIFICATION_TYPE = U
NORAD_CAT_ID   = 81617
ELEMENT_SET_NO = 999
REV_AT_EPOCH   = 56243
BSTAR          = .19824E-2
MEAN_MOTION_DOT = .292E-5
MEAN_MOTION_DDOT = 0

CCSDS_OMM_VERS = 2.0
CREATION_DATE  = 
ORIGINATOR     = 

OBJECT_NAME    = UNKNOWN
OBJECT_ID      = 
CENTER_NAME    = EARTH
REF_FRAME      = TEME
TIME_SYSTEM    = UTC
MEAN_ELEMENT_THEORY = SGP/SGP4

EPOCH          = 2026-02-26T01:53:09.671424
MEAN_MOTION    = 14.72174479
ECCENTRICITY   = .0063505
INCLINATION    = 66.9770
RA_OF_ASC_NODE = 318.5702
ARG_OF_PERICENTER = 176.9023
MEAN_ANOMALY   = 183.2505

EPHEMERIS_TYPE = 0
CLASSIFICATION_TYPE = U
NORAD_CAT_ID   = 81624
ELEMENT_SET_NO = 999
REV_AT_EPOCH   = 65079
BSTAR          = .72056E-3
MEAN_MOTION_DOT = .4588E-4
MEAN_MOTION_DDOT = 0

CCSDS_OMM_VERS = 2.0
CREATION_DATE  = 
ORIGINATOR     = 

OBJECT_NAME    = UNKNOWN
OBJECT_ID      = 
CENTER_NAME    = EARTH
REF_FRAME      = TEME
TIME_SYSTEM    = UTC
MEAN_ELEMENT_THEORY = SGP/SGP4

EPOCH          = 2026-02-25T18:57:48.243744
MEAN_MOTION    = 12.57284598
ECCENTRICITY   = .0978639
INCLINATION    = 65.8289
RA_OF_ASC_NODE = 338.5036
ARG_OF_PERICENTER = 46.9963
MEAN_ANOMALY   = 320.8950

EPHEMERIS_TYPE = 0
CLASSIFICATION_TYPE = U
NORAD_CAT_ID   = 81640
ELEMENT_SET_NO = 999
REV_AT_EPOCH   = 51951
BSTAR          = .56273E-3
MEAN_MOTION_DOT = .557E-5
MEAN_MOTION_DDOT = 0

CCSDS_OMM_VERS = 2.0
CREATION_DATE  = 
ORIGINATOR     = 

OBJECT_NAME    = UNKNOWN
OBJECT_ID      = 
CENTER_NAME    = EARTH
REF_FRAME      = TEME
TIME_SYSTEM    = UTC
MEAN_ELEMENT_THEORY = SGP/SGP4

EPOCH          = 2026-02-26T05:27:02.108736
MEAN_MOTION    = 13.44490187
ECCENTRICITY   = .0363612
INCLINATION    = 102.1457
RA_OF_ASC_NODE = 326.3790
ARG_OF_PERICENTER = 191.0495
MEAN_ANOMALY   = 323.8526

EPHEMERIS_TYPE = 0
CLASSIFICATION_TYPE = U
NORAD_CAT_ID   = 81652
ELEMENT_SET_NO = 999
REV_AT_EPOCH   = 58879
BSTAR          = .4227E-3
MEAN_MOTION_DOT = .306E-5
MEAN_MOTION_DDOT = 0

CCSDS_OMM_VERS = 2.0
CREATION_DATE  = 
ORIGINATOR     = 

OBJECT_NAME    = UNKNOWN
OBJECT_ID      = 
CENTER_NAME    = EARTH
REF_FRAME      = TEME
TIME_SYSTEM    = UTC
MEAN_ELEMENT_THEORY = SGP/SGP4

EPOCH          = 2026-02-25T12:57:19.882080
MEAN_MOTION    = 14.48452407
ECCENTRICITY   = .0015515
INCLINATION    = 74.0346
RA_OF_ASC_NODE = 256.5257
ARG_OF_PERICENTER = 172.3488
MEAN_ANOMALY   = 187.7911

EPHEMERIS_TYPE = 0
CLASSIFICATION_TYPE = U
NORAD_CAT_ID   = 81667
ELEMENT_SET_NO = 999
REV_AT_EPOCH   = 46747
BSTAR          = .62789E-3
MEAN_MOTION_DOT = .2331E-4
MEAN_MOTION_DDOT = 0

CCSDS_OMM_VERS = 2.0
CREATION_DATE  = 
ORIGINATOR     = 

OBJECT_NAME    = UNKNOWN
OBJECT_ID      = 
CENTER_NAME    = EARTH
REF_FRAME      = TEME
TIME_SYSTEM    = UTC
MEAN_ELEMENT_THEORY = SGP/SGP4

EPOCH          = 2026-02-04T12:53:17.233728
MEAN_MOTION    = 14.10064697
ECCENTRICITY   = .0026829
INCLINATION    = 66.8209
RA_OF_ASC_NODE = 228.7911
ARG_OF_PERICENTER = 195.9151
MEAN_ANOMALY   = 195.3195

EPHEMERIS_TYPE = 0
CLASSIFICATION_TYPE = U
NORAD_CAT_ID   = 81674
ELEMENT_SET_NO = 999
REV_AT_EPOCH   = 62130
BSTAR          = .55035E-3
MEAN_MOTION_DOT = .896E-5
MEAN_MOTION_DDOT = 0

CCSDS_OMM_VERS = 2.0
CREATION_DATE  = 
ORIGINATOR     = 

OBJECT_NAME    = UNKNOWN
OBJECT_ID      = 
CENTER_NAME    = EARTH
REF_FRAME      = TEME
TIME_SYSTEM    = UTC
MEAN_ELEMENT_THEORY = SGP/SGP4

EPOCH          = 2026-02-25T03:45:16.440192
MEAN_MOTION    = 14.57938838
ECCENTRICITY   = .002369
INCLINATION    = 81.2151
RA_OF_ASC_NODE = 216.8553
ARG_OF_PERICENTER = 70.5655
MEAN_ANOMALY   = 289.8100

EPHEMERIS_TYPE = 0
CLASSIFICATION_TYPE = U
NORAD_CAT_ID   = 81683
ELEMENT_SET_NO = 999
REV_AT_EPOCH   = 64670
BSTAR          = .76929E-3
MEAN_MOTION_DOT = .3557E-4
MEAN_MOTION_DDOT = 0

CCSDS_OMM_VERS = 2.0
CREATION_DATE  = 
ORIGINATOR     = 

OBJECT_NAME    = UNKNOWN
OBJECT_ID      = 
CENTER_NAME    = EARTH
REF_FRAME      = TEME
TIME_SYSTEM    = UTC
MEAN_ELEMENT_THEORY = SGP/SGP4

EPOCH          = 2026-02-02T14:28:43.739328
MEAN_MOTION    = 12.25967259
ECCENTRICITY   = .0365424
INCLINATION    = 101.0975
RA_OF_ASC_NODE = 94.3495
ARG_OF_PERICENTER = 344.6978
MEAN_ANOMALY   = 14.3266

EPHEMERIS_TYPE = 0
CLASSIFICATION_TYPE = U
NORAD_CAT_ID   = 81693
ELEMENT_SET_NO = 999
REV_AT_EPOCH   = 97412
BSTAR          = .71303E-2
MEAN_MOTION_DOT = .95E-5
MEAN_MOTION_DDOT = 0

CCSDS_OMM_VERS = 2.0
CREATION_DATE  = 
ORIGINATOR     = 

OBJECT_NAME    = UNKNOWN
OBJECT_ID      = 
CENTER_NAME    = EARTH
REF_FRAME      = TEME
TIME_SYSTEM    = UTC
MEAN_ELEMENT_THEORY = SGP/SGP4

EPOCH          = 2026-02-08T06:47:19.497120
MEAN_MOTION    = 14.40678835
ECCENTRICITY   = .0003672
INCLINATION    = 70.9995
RA_OF_ASC_NODE = 261.5394
ARG_OF_PERICENTER = 149.7279
MEAN_ANOMALY   = 210.4070

EPHEMERIS_TYPE = 0
CLASSIFICATION_TYPE = U
NORAD_CAT_ID   = 81745
ELEMENT_SET_NO = 999
REV_AT_EPOCH   = 63803
BSTAR          = .69616E-3
MEAN_MOTION_DOT = .2174E-4
MEAN_MOTION_DDOT = 0

CCSDS_OMM_VERS = 2.0
CREATION_DATE  = 
ORIGINATOR     = 

OBJECT_NAME    = UNKNOWN
OBJECT_ID      = 
CENTER_NAME    = EARTH
REF_FRAME      = TEME
TIME_SYSTEM    = UTC
MEAN_ELEMENT_THEORY = SGP/SGP4

EPOCH          = 2026-02-24T14:14:11.037120
MEAN_MOTION    = 14.42046127
ECCENTRICITY   = .0013486
INCLINATION    = 82.9203
RA_OF_ASC_NODE = 163.0306
ARG_OF_PERICENTER = 22.9588
MEAN_ANOMALY   = 337.2205

EPHEMERIS_TYPE = 0
CLASSIFICATION_TYPE = U
NORAD_CAT_ID   = 81775
ELEMENT_SET_NO = 999
REV_AT_EPOCH   = 63591
BSTAR          = .17172E-2
MEAN_MOTION_DOT = .5661E-4
MEAN_MOTION_DDOT = 0

CCSDS_OMM_VERS = 2.0
CREATION_DATE  = 
ORIGINATOR     = 

OBJECT_NAME    = UNKNOWN
OBJECT_ID      = 
CENTER_NAME    = EARTH
REF_FRAME      = TEME
TIME_SYSTEM    = UTC
MEAN_ELEMENT_THEORY = SGP/SGP4

EPOCH          = 2026-02-26T11:20:42.132768
MEAN_MOTION    = 9.33778892
ECCENTRICITY   = .1463601
INCLINATION    = 54.5094
RA_OF_ASC_NODE = 96.3279
ARG_OF_PERICENTER = 120.2786
MEAN_ANOMALY   = 255.0904

EPHEMERIS_TYPE = 0
CLASSIFICATION_TYPE = U
NORAD_CAT_ID   = 81779
ELEMENT_SET_NO = 999
REV_AT_EPOCH   = 48739
BSTAR          = -.26081E+0
MEAN_MOTION_DOT = -.4036E-4
MEAN_MOTION_DDOT = 0

