UNKNOWN                 
1 81615U          26056.54286566  .00002519  00000+0  92129-3 0  9994
2 81615  65.8275 247.7815 0767567 101.5751 267.2412 13.34391418592847
UNKNOWN                 
1 81617U          26055.93295549  .00000292  00000+0  19824-2 0  9995
2 81617 101.2660 232.1669 0032670  98.7048 261.7731 12.57595086562439
UNKNOWN                 
1 81624U          26057.07858416  .00004588  00000+0  72056-3 0  9997
2 81624  66.9770 318.5702 0063505 176.9023 183.2505 14.72174479650798
UNKNOWN                 
1 81640U          26056.79014171  .00000557  00000+0  56273-3 0  9990
2 81640  65.8289 338.5036 0978639  46.9963 320.8950 12.57284598519515
UNKNOWN                 
1 81652U          26057.22710774  .00000306  00000+0  42270-3 0  9998
2 81652 102.1457 326.3790 0363612 191.0495 323.8526 13.44490187588791
UNKNOWN                 
1 81667U          26056.53981345  .00002331  00000+0  62789-3 0  9998
2 81667  74.0346 256.5257 0015515 172.3488 187.7911 14.48452407467477
UNKNOWN                 
1 81674U          26035.53700502  .00000896  00000+0  55035-3 0  9997
2 81674  66.8209 228.7911 0026829 195.9151 195.3195 14.10064697621300
UNKNOWN                 
1 81683U          26056.15644028  .00003557  00000+0  76929-3 0  9990
2 81683  81.2151 216.8553 0023690  70.5655 289.8100 14.57938838646701
UNKNOWN                 
1 81693U          26033.60328402  .00000950  00000+0  71303-2 0  9995
2 81693 101.0975  94.3495 0365424 344.6978  14.3266 12.25967259974124
UNKNOWN                 
1 81745U          26039.28286455  .00002174  00000+0  69616-3 0  9999
2 81745  70.9995 261.5394 0003672 149.7279 210.4070 14.40678835638033
UNKNOWN                 
1 81775U          26055.59318330  .00005661  00000+0  17172-2 0  9995
2 81775  82.9203 163.0306 0013486  22.9588 337.2205 14.42046127635916
UNKNOWN                 
1 81779U          26057.47270987 -.00004036  00000+0 -26081+0 0  9996
2 81779  54.5094  96.3279 1463601 120.2786 255.0904  9.33778892487396
